{
  "type": "FeatureCollection",
  "features": [
    {
      "type": "Feature",
      "properties": {
        "norad_id": 31293,
        "name": "FENGYUN 1C DEB",
        "group": "fengyun-1c-debris",
        "lat": 60.06674073210459,
        "lon": 179.95521206720002,
        "alt_km": 864.6243703457731,
        "timestamp": "2025-12-02T23:34:15.797928+00:00",
        "meta_object_name": "FENGYUN 1C DEB",
        "meta_object_id": "1999-025BPB",
        "meta_epoch": "2025-12-01T18:28:35.712192",
        "meta_mean_motion": 14.30803308,
        "meta_eccentricity": 0.0125347,
        "meta_inclination": 98.4232,
        "meta_ra_of_asc_node": 343.868,
        "meta_arg_of_pericenter": 277.6493,
        "meta_mean_anomaly": 81.047,
        "meta_ephemeris_type": 0,
        "meta_classification_type": "U",
        "meta_norad_cat_id": 31293,
        "meta_element_set_no": 999,
        "meta_rev_at_epoch": 65087,
        "meta_bstar": 9.6158812e-05,
        "meta_mean_motion_dot": 2.29e-06,
        "meta_mean_motion_ddot": 0,
        "tle_line1": "1 31293U 99025BPB 25335.76985778  .00000229  00000+0  96159-4 0  9994",
        "tle_line2": "2 31293  98.4232 343.8680 0125347 277.6493  81.0470 14.30803308650876"
      },
      "geometry": {
        "type": "Point",
        "coordinates": [
          179.95521206720002,
          60.06674073210459
        ]
      }
    },
    {
      "type": "Feature",
      "properties": {
        "norad_id": 31294,
        "name": "FENGYUN 1C DEB",
        "group": "fengyun-1c-debris",
        "lat": 6.624996602066235,
        "lon": -27.998322606914158,
        "alt_km": 770.9051592522692,
        "timestamp": "2025-12-02T23:34:15.797938+00:00",
        "meta_object_name": "FENGYUN 1C DEB",
        "meta_object_id": "1999-025BPC",
        "meta_epoch": "2025-11-30T10:27:29.113632",
        "meta_mean_motion": 14.15271063,
        "meta_eccentricity": 0.01004597,
        "meta_inclination": 98.5427,
        "meta_ra_of_asc_node": 330.5625,
        "meta_arg_of_pericenter": 16.5048,
        "meta_mean_anomaly": 343.9358,
        "meta_ephemeris_type": 0,
        "meta_classification_type": "U",
        "meta_norad_cat_id": 31294,
        "meta_element_set_no": 999,
        "meta_rev_at_epoch": 96679,
        "meta_bstar": 0.00052440304,
        "meta_mean_motion_dot": 1.029e-05,
        "meta_mean_motion_ddot": 0,
        "tle_line1": "1 31294U 99025BPC 25334.43575363  .00001029  00000+0  52440-3 0  9996",
        "tle_line2": "2 31294  98.5427 330.5625 0100459  16.5048 343.9358 14.15271063966795"
      },
      "geometry": {
        "type": "Point",
        "coordinates": [
          -27.998322606914158,
          6.624996602066235
        ]
      }
    },
    {
      "type": "Feature",
      "properties": {
        "norad_id": 31295,
        "name": "FENGYUN 1C DEB",
        "group": "fengyun-1c-debris",
        "lat": -59.98615814933694,
        "lon": -31.82574218857734,
        "alt_km": 867.6582868510659,
        "timestamp": "2025-12-02T23:34:15.797948+00:00",
        "meta_object_name": "FENGYUN 1C DEB",
        "meta_object_id": "1999-025BPD",
        "meta_epoch": "2025-12-02T05:13:21.535104",
        "meta_mean_motion": 13.9682403,
        "meta_eccentricity": 0.0076742,
        "meta_inclination": 98.3168,
        "meta_ra_of_asc_node": 162.1504,
        "meta_arg_of_pericenter": 281.0488,
        "meta_mean_anomaly": 78.2053,
        "meta_ephemeris_type": 0,
        "meta_classification_type": "U",
        "meta_norad_cat_id": 31295,
        "meta_element_set_no": 999,
        "meta_rev_at_epoch": 95356,
        "meta_bstar": 0.00017056,
        "meta_mean_motion_dot": 2.04e-06,
        "meta_mean_motion_ddot": 0,
        "tle_line1": "1 31295U 99025BPD 25336.21761036  .00000204  00000+0  17056-3 0  9997",
        "tle_line2": "2 31295  98.3168 162.1504 0076742 281.0488  78.2053 13.96824030953562"
      },
      "geometry": {
        "type": "Point",
        "coordinates": [
          -31.82574218857734,
          -59.98615814933694
        ]
      }
    },
    {
      "type": "Feature",
      "properties": {
        "norad_id": 31296,
        "name": "FENGYUN 1C DEB",
        "group": "fengyun-1c-debris",
        "lat": -38.03729234208888,
        "lon": -102.03741864320193,
        "alt_km": 660.5639585528834,
        "timestamp": "2025-12-02T23:34:15.797958+00:00",
        "meta_object_name": "FENGYUN 1C DEB",
        "meta_object_id": "1999-025BPE",
        "meta_epoch": "2025-12-02T05:46:58.568160",
        "meta_mean_motion": 14.70493714,
        "meta_eccentricity": 0.0020617,
        "meta_inclination": 99.0666,
        "meta_ra_of_asc_node": 249.9627,
        "meta_arg_of_pericenter": 254.4562,
        "meta_mean_anomaly": 105.4365,
        "meta_ephemeris_type": 0,
        "meta_classification_type": "U",
        "meta_norad_cat_id": 31296,
        "meta_element_set_no": 999,
        "meta_rev_at_epoch": 97195,
        "meta_bstar": 0.0060676,
        "meta_mean_motion_dot": 0.00037053,
        "meta_mean_motion_ddot": 0,
        "tle_line1": "1 31296U 99025BPE 25336.24095565  .00037053  00000+0  60676-2 0  9995",
        "tle_line2": "2 31296  99.0666 249.9627 0020617 254.4562 105.4365 14.70493714971957"
      },
      "geometry": {
        "type": "Point",
        "coordinates": [
          -102.03741864320193,
          -38.03729234208888
        ]
      }
    },
    {
      "type": "Feature",
      "properties": {
        "norad_id": 31297,
        "name": "FENGYUN 1C DEB",
        "group": "fengyun-1c-debris",
        "lat": -29.092117875092875,
        "lon": -71.85435527927635,
        "alt_km": 653.9342111299029,
        "timestamp": "2025-12-02T23:34:15.797968+00:00",
        "meta_object_name": "FENGYUN 1C DEB",
        "meta_object_id": "1999-025BPF",
        "meta_epoch": "2025-12-02T07:55:47.660736",
        "meta_mean_motion": 14.56987984,
        "meta_eccentricity": 0.0139628,
        "meta_inclination": 98.9331,
        "meta_ra_of_asc_node": 112.468,
        "meta_arg_of_pericenter": 154.3593,
        "meta_mean_anomaly": 237.3114,
        "meta_ephemeris_type": 0,
        "meta_classification_type": "U",
        "meta_norad_cat_id": 31297,
        "meta_element_set_no": 999,
        "meta_rev_at_epoch": 99164,
        "meta_bstar": 0.00074821,
        "meta_mean_motion_dot": 3.784e-05,
        "meta_mean_motion_ddot": 0,
        "tle_line1": "1 31297U 99025BPF 25336.33041274  .00003784  00000+0  74821-3 0  9996",
        "tle_line2": "2 31297  98.9331 112.4680 0139628 154.3593 237.3114 14.56987984991649"
      },
      "geometry": {
        "type": "Point",
        "coordinates": [
          -71.85435527927635,
          -29.092117875092875
        ]
      }
    },
    {
      "type": "Feature",
      "properties": {
        "norad_id": 31300,
        "name": "FENGYUN 1C DEB",
        "group": "fengyun-1c-debris",
        "lat": -1.8839404205610617,
        "lon": -124.65810993638365,
        "alt_km": 848.2544916717252,
        "timestamp": "2025-12-02T23:34:15.797979+00:00",
        "meta_object_name": "FENGYUN 1C DEB",
        "meta_object_id": "1999-025BPJ",
        "meta_epoch": "2025-12-02T01:13:53.179680",
        "meta_mean_motion": 14.15040927,
        "meta_eccentricity": 0.00613231,
        "meta_inclination": 99.5438,
        "meta_ra_of_asc_node": 54.6641,
        "meta_arg_of_pericenter": 90.1773,
        "meta_mean_anomaly": 31.7761,
        "meta_ephemeris_type": 0,
        "meta_classification_type": "U",
        "meta_norad_cat_id": 31300,
        "meta_element_set_no": 999,
        "meta_rev_at_epoch": 96023,
        "meta_bstar": 0.0014985982,
        "meta_mean_motion_dot": 2.907e-05,
        "meta_mean_motion_ddot": 0,
        "tle_line1": "1 31300U 99025BPJ 25336.05130995  .00002907  00000+0  14986-2 0  9990",
        "tle_line2": "2 31300  99.5438  54.6641 0061323  90.1773  31.7761 14.15040927960233"
      },
      "geometry": {
        "type": "Point",
        "coordinates": [
          -124.65810993638365,
          -1.8839404205610617
        ]
      }
    },
    {
      "type": "Feature",
      "properties": {
        "norad_id": 31302,
        "name": "FENGYUN 1C DEB",
        "group": "fengyun-1c-debris",
        "lat": -53.707253881951075,
        "lon": 31.3366500073424,
        "alt_km": 822.0420228096655,
        "timestamp": "2025-12-02T23:34:15.797989+00:00",
        "meta_object_name": "FENGYUN 1C DEB",
        "meta_object_id": "1999-025BPL",
        "meta_epoch": "2025-11-29T01:45:33.845760",
        "meta_mean_motion": 14.27396097,
        "meta_eccentricity": 0.00277692,
        "meta_inclination": 99.4148,
        "meta_ra_of_asc_node": 14.0729,
        "meta_arg_of_pericenter": 94.2575,
        "meta_mean_anomaly": 296.2281,
        "meta_ephemeris_type": 0,
        "meta_classification_type": "U",
        "meta_norad_cat_id": 31302,
        "meta_element_set_no": 999,
        "meta_rev_at_epoch": 96163,
        "meta_bstar": 0.0015278907,
        "meta_mean_motion_dot": 3.713e-05,
        "meta_mean_motion_ddot": 0,
        "tle_line1": "1 31302U 99025BPL 25333.07330840  .00003713  00000+0  15279-2 0  9994",
        "tle_line2": "2 31302  99.4148  14.0729 0027769  94.2575 296.2281 14.27396097961635"
      },
      "geometry": {
        "type": "Point",
        "coordinates": [
          31.3366500073424,
          -53.707253881951075
        ]
      }
    }
  ]
}